1998-067WJ              
1 59559U 98067WJ  24199.29612855  .00119741  00000+0  11093-2 0  9994
2 59559  51.6319 160.7146 0007255  53.2474 306.9187 15.66583791 14054
1998-067WK              
1 59560U 98067WK  24199.30696951  .00600496  00000+0  22070-2 0  9996
2 59560  51.6251 156.2326 0009010  74.3349 285.8648 15.86151508 14031
1998-067WL              
1 59561U 98067WL  24199.19140128  .00050004  00000+0  64532-3 0  9998
2 59561  51.6326 163.7703 0005378  55.2080 304.9418 15.58461469 13979
BURSTCUBE               
1 59562U 98067WM  24199.16755271  .00123091  00000+0  11373-2 0  9998
2 59562  51.6329 161.3589 0008080  72.7017 287.4862 15.66629132 14012
SNOOPI                  
1 59563U 98067WN  24199.36082500  .00098750  00000+0  10069-2 0  9993
2 59563  51.6338 161.1566 0007144  75.3311 284.8476 15.64270300 14022
SHENZHOU-18 (SZ-18)     
1 59591U 24078A   24196.51233759  .00044974  00000+0  46115-3 0  9994
2 59591  41.4678 276.2680 0003525  40.8506 319.2597 15.64137814183378
1998-067WP              
1 59596U 98067WP  24199.31228730  .00196402  00000+0  14735-2 0  9998
2 59596  51.6297 159.3097 0008089  60.9225 299.2582 15.71429710 14086
1998-067WQ              
1 59597U 98067WQ  24199.17923907  .00195241  00000+0  14554-2 0  9990
2 59597  51.6332 159.9396 0008403  59.7402 300.4427 15.71583083 14030
SZ-17 MODULE            
1 59624U 23164C   24198.60907454  .00047753  00000+0  42317-3 0  9996
2 59624  41.4763 262.4405 0005671 100.2600 259.8881 15.67740159 12159
PROGRESS-MS 27          
1 59913U 24103A   24198.86284401  .00021147  00000+0  37782-3 0  9998
2 59913  51.6368 168.3262 0010266  74.2886 285.9235 15.49929584  7272
STARLINER CFT-1         
1 59968U 24109A   24198.86284401  .00021147  00000+0  37782-3 0  9994
2 59968  51.6368 168.3262 0010266  74.2886 285.9235 15.49929584  6338
